STARLINK-30193
1 57414U 23102L   26061.16668981  .00064612  00000+0  43130-2 0  9990
2 57414  43.0003 289.4307 0001698 261.9564 269.0829 15.06179519  5761
STARLINK-30140
1 57458U 23107B   26061.16668981  .00038977  00000+0  26118-2 0  9995
2 57458  43.0009  20.0284 0001015 302.2563 273.2530 15.06250900  5769
STARLINK-30354
1 57772U 23134B   26061.16668981  .00006280  00000+0  43489-3 0  9997
2 57772  43.0013 238.0333 0002552 261.1595 100.9114 15.06228956  5810
STARLINK-30355
1 57777U 23134G   26061.16668981  .00005286  00000+0  36863-3 0  9995
2 57777  43.0010 238.4388 0000888 279.9826 260.4622 15.06196574  5827
